     2.10           NAVIGATION                              RINEX VERSION / TYPE
fic2rin                                 07/19/2008 02:06:01 PGM / RUN BY / DATE
                                                            END OF HEADER
 5 08  7 18 22  0  0.0 -.346093438566D-03  .253521648119D-10  .000000000000D+00
     .400000000000D+02 -.125187500000D+03  .468590947265D-08  .313557726172D+01
    -.649131834507D-05  .901542301290D-02  .101141631603D-04  .515356961060D+04
     .511200000000D+06  .160187482834D-06  .305516787441D+01 -.145286321640D-06
     .943535712015D+00  .171968750000D+03  .124042854618D+01 -.794854537453D-08
     .178578867098D-10  .100000000000D+01  .148800000000D+04  .000000000000D+00
     .240000000000D+01  .000000000000D+00 -.419095158577D-08  .400000000000D+02
     .504006000000D+06  .400000000000D+01
 6 08  7 18 22  0  0.0  .161989126354D-03  .329691829393D-11  .000000000000D+00
     .410000000000D+02  .175625000000D+02  .536593779856D-08  .303006677490D+01
     .107660889626D-05  .589227001183D-02  .790879130363D-05  .515372415733D+04
     .511200000000D+06  .232830643654D-06 -.213089313200D+01 -.763684511185D-07
     .933365470418D+00  .207125000000D+03 -.162757448301D+01 -.824784355579D-08
     .458947688442D-09  .100000000000D+01  .148800000000D+04  .000000000000D+00
     .240000000000D+01  .000000000000D+00 -.465661287308D-08  .410000000000D+02
     .504006000000D+06  .400000000000D+01
 7 08  7 18 22  0  0.0 -.244798138738D-05  .534328137292D-11  .000000000000D+00
     .290000000000D+02 -.632187500000D+02  .471019619858D-08 -.855618845628D+00
    -.347755849361D-05  .195055850782D-02  .135228037834D-05  .515370537758D+04
     .511200000000D+06  .353902578354D-07  .210021962539D+01 -.149011611938D-07
     .962912667623D+00  .353375000000D+03  .263820850976D+01 -.841070748258D-08
    -.289297764699D-10  .100000000000D+01  .148800000000D+04  .000000000000D+00
     .240000000000D+01  .000000000000D+00 -.107102096081D-07  .290000000000D+02
     .504006000000D+06  .400000000000D+01
 9 08  7 18 22  0  0.0  .592600554228D-05  .170530256582D-11  .000000000000D+00
     .177000000000D+03 -.712187500000D+02  .443554190098D-08 -.207275404065D+01
    -.334158539772D-05  .201381256338D-01  .189989805222D-06  .515366586304D+04
     .511200000000D+06  .245869159698D-06  .206390783939D+01  .931322574615D-07
     .971912324598D+00  .373406250000D+03  .142224968959D+01 -.807140763510D-08
     .471448209139D-10  .100000000000D+01  .148800000000D+04  .000000000000D+00
     .485000000000D+01  .000000000000D+00 -.558793544769D-08  .177000000000D+03
     .504006000000D+06  .400000000000D+01
10 08  7 18 22  0  0.0 -.301189720631D-05 -.341060513165D-12  .000000000000D+00
     .123000000000D+03  .523125000000D+02  .404623997071D-08  .162250478868D+01
     .276789069176D-05  .796728057321D-02  .111684203148D-04  .515367690659D+04
     .511200000000D+06 -.931322574615D-07  .307137895240D-01  .204890966415D-07
     .963288851156D+00  .168843750000D+03  .558456335685D+00 -.769996359153D-08
    -.433589489314D-09  .100000000000D+01  .148800000000D+04  .000000000000D+00
     .340000000000D+01  .000000000000D+00 -.232830643654D-08  .123000000000D+03
     .504006000000D+06  .400000000000D+01
11 08  7 18 22  0  0.0  .231447629631D-04 -.682121026330D-12  .000000000000D+00
     .740000000000D+02 -.996875000000D+01  .651598570267D-08 -.128122925534D+01
    -.521540641785D-06  .819524633698D-02  .402145087719D-05  .515362843895D+04
     .511200000000D+06  .216066837311D-06 -.123558090233D+01 -.726431608200D-07
     .890428704833D+00  .265031250000D+03  .596956474502D+00 -.894465829521D-08
    -.235724104569D-09  .100000000000D+01  .148800000000D+04  .000000000000D+00
     .240000000000D+01  .000000000000D+00 -.116415321827D-07  .740000000000D+02
     .504006000000D+06  .400000000000D+01
12 08  7 18 22  0  0.0 -.356743112206D-03  .795807864051D-12  .000000000000D+00
     .970000000000D+02 -.107843750000D+03  .426446334630D-08 -.839384053726D+00
    -.559166073799D-05  .331031554379D-02  .109300017357D-04  .515357906532D+04
     .511200000000D+06  .931322574615D-08 -.313347765536D+01 -.689178705215D-07
     .964777670200D+00  .169812500000D+03 -.902202510916D+00 -.788818571745D-08
     .105361531588D-09  .100000000000D+01  .148800000000D+04  .000000000000D+00
     .240000000000D+01  .000000000000D+00 -.116415321827D-07  .970000000000D+02
     .504006000000D+06  .400000000000D+01
13 08  7 18 22  0  0.0  .264329835773D-03  .147792889038D-11  .000000000000D+00
     .930000000000D+02  .110531250000D+03  .366158109098D-08  .127445147249D+01
     .574067234993D-05  .382664473727D-02  .458396971226D-05  .515360571671D+04
     .511200000000D+06 -.651925802231D-07  .110075109267D+01 -.502914190292D-07
     .995404350267D+00  .306312500000D+03  .151109298981D+01 -.784818405122D-08
     .391087718945D-09  .100000000000D+01  .148800000000D+04  .000000000000D+00
     .340000000000D+01  .000000000000D+00 -.111758708954D-07  .930000000000D+02
     .504006000000D+06  .400000000000D+01
16 08  7 18 22  0  0.0  .116384122521D-03 -.170530256582D-11  .000000000000D+00
     .600000000000D+02 -.116562500000D+03  .420553232016D-08  .288004390413D+01
    -.583194196224D-05  .476810010150D-02  .105854123831D-04  .515364529037D+04
     .511200000000D+06 -.763684511185D-07 -.311703499743D+01  .121071934700D-06
     .966437154730D+00  .178718750000D+03 -.446796929148D+00 -.771853579371D-08
     .109290266664D-09  .100000000000D+01  .148800000000D+04  .000000000000D+00
     .240000000000D+01  .000000000000D+00 -.977888703346D-08  .600000000000D+02
     .504006000000D+06  .400000000000D+01
17 08  7 18 22  0  0.0  .386615283787D-04  .113686837722D-12  .000000000000D+00
     .660000000000D+02  .227812500000D+02  .478341353409D-08  .162309050158D+01
     .126287341118D-05  .366311927792D-02  .804103910923D-05  .515377652931D+04
     .511200000000D+06 -.353902578354D-07 -.207625162323D+01  .109896063805D-06
     .959413035495D+00  .225437500000D+03 -.276138845468D+01 -.805104964425D-08
     .413588656199D-09  .100000000000D+01  .148800000000D+04  .000000000000D+00
     .240000000000D+01  .000000000000D+00 -.102445483208D-07  .660000000000D+02
     .504006000000D+06  .400000000000D+01
18 08  7 18 22  0  0.0 -.154893845320D-03  .432009983342D-11  .000000000000D+00
     .109000000000D+03  .623750000000D+02  .420624663563D-08  .304767156179D+01
     .320374965668D-05  .962340540718D-02  .117626041174D-04  .515370833015D+04
     .511200000000D+06 -.111758708954D-07  .408706454207D-01 -.124797224998D-06
     .947372037665D+00  .143968750000D+03 -.249399810364D+01 -.763424656844D-08
    -.332871008271D-09  .100000000000D+01  .148800000000D+04  .000000000000D+00
     .340000000000D+01  .000000000000D+00 -.107102096081D-07  .109000000000D+03
     .504006000000D+06  .400000000000D+01
19 08  7 18 22  0  0.0  .336952507496D-04  .454747350886D-12  .000000000000D+00
     .490000000000D+02  .152812500000D+02  .487627454498D-08  .123600751558D+01
     .787898898125D-06  .484151113778D-02  .713020563126D-05  .515370314980D+04
     .511200000000D+06  .689178705215D-07 -.201929603261D+01 -.409781932831D-07
     .957143372223D+00  .233375000000D+03 -.566325979144D+00 -.804462080503D-08
     .324656380384D-09  .100000000000D+01  .148800000000D+04  .000000000000D+00
     .240000000000D+01  .000000000000D+00 -.144354999065D-07  .490000000000D+02
     .504006000000D+06  .400000000000D+01
20 08  7 18 22  0  0.0  .109623651952D-03 -.909494701773D-12  .000000000000D+00
     .106000000000D+03  .399375000000D+02  .433053752713D-08  .312818331533D+01
     .221841037273D-05  .358469132334D-02  .110622495413D-04  .515353168678D+04
     .511200000000D+06 -.856816768646D-07 -.127319296503D-01  .670552253723D-07
     .946881930850D+00  .158031250000D+03  .135179127732D+01 -.770853537715D-08
    -.388230457071D-09  .100000000000D+01  .148800000000D+04  .000000000000D+00
     .240000000000D+01  .630000000000D+02 -.651925802231D-08  .106000000000D+03
     .504006000000D+06  .400000000000D+01
21 08  7 18 22  0  0.0  .575669109821D-04 -.125055521494D-11  .000000000000D+00
     .490000000000D+02 -.236875000000D+02  .531950729312D-08 -.205566668789D+01
    -.135041773319D-05  .141716253711D-01  .548921525478D-05  .515369412804D+04
     .511200000000D+06  .596046447754D-07 -.101719306677D+01 -.167638063431D-06
     .935532809885D+00  .259281250000D+03 -.269772120657D+01 -.823320008869D-08
    -.279297348141D-09  .100000000000D+01  .148800000000D+04  .000000000000D+00
     .240000000000D+01  .000000000000D+00 -.116415321827D-07  .490000000000D+02
     .504006000000D+06  .400000000000D+01
23 08  7 18 22  0  0.0  .364971812814D-03  .181898940355D-11  .000000000000D+00
     .690000000000D+02  .112812500000D+03  .422874757288D-08  .551303409440D+00
     .592321157455D-05  .576665683184D-02  .493973493576D-05  .515371378899D+04
     .511200000000D+06  .912696123123D-07  .105608196582D+01 -.409781932831D-07
     .971269461340D+00  .287812500000D+03  .277019528589D+01 -.811605235187D-08
     .390016245742D-09  .100000000000D+01  .148800000000D+04  .000000000000D+00
     .240000000000D+01  .000000000000D+00 -.200234353542D-07  .690000000000D+02
     .504006000000D+06  .400000000000D+01
24 08  7 18 22  0  0.0  .110480468720D-03  .284217094304D-11  .000000000000D+00
     .870000000000D+02 -.192187500000D+02  .489591822036D-08  .287915163382D+01
    -.949949026108D-06  .763320561964D-02  .606663525105D-05  .515365826225D+04
     .511200000000D+06  .745058059692D-08 -.990346559704D+00  .614672899246D-07
     .952205846693D+00  .261781250000D+03 -.727924310638D+00 -.797890378194D-08
    -.544308386915D-09  .100000000000D+01  .148800000000D+04  .000000000000D+00
     .340000000000D+01  .000000000000D+00 -.139698386192D-08  .870000000000D+02
     .504006000000D+06  .400000000000D+01
